[{"OBJECT_NAME":"STARLINK-1215","OBJECT_ID":"2020-012AZ","EPOCH":"2026-03-09T23:34:27.559488","MEAN_MOTION":15.30203883,"ECCENTRICITY":0.00013943,"INCLINATION":53.1616,"RA_OF_ASC_NODE":356.9455,"ARG_OF_PERICENTER":74.9207,"MEAN_ANOMALY":285.1948,"EPHEMERIS_TYPE":0,"CLASSIFICATION_TYPE":"U","NORAD_CAT_ID":45225,"ELEMENT_SET_NO":999,"REV_AT_EPOCH":33552,"BSTAR":0.00012456515,"MEAN_MOTION_DOT":3.332e-5,"MEAN_MOTION_DDOT":0},{"OBJECT_NAME":"GEOSCAN 5 (RS92S5)","OBJECT_ID":"2025-155R","EPOCH":"2026-03-09T22:01:07.273920","MEAN_MOTION":15.30265233,"ECCENTRICITY":0.00070849,"INCLINATION":97.4462,"RA_OF_ASC_NODE":37.7456,"ARG_OF_PERICENTER":154.5846,"MEAN_ANOMALY":205.5745,"EPHEMERIS_TYPE":0,"CLASSIFICATION_TYPE":"U","NORAD_CAT_ID":64891,"ELEMENT_SET_NO":999,"REV_AT_EPOCH":6562,"BSTAR":0.00068639307,"MEAN_MOTION_DOT":0.00020065,"MEAN_MOTION_DDOT":0}]
